#dP2019  3 23  0  0  0.00000000      96 __u+U ITR00 FIT  IAC
## 2045 518400.00000000   900.00000000 58565 0.0000000000000
+   89   C02C03C05C06C07C08C09C10C11C12C13C14C16E01E02E03E04
+        E05E07E08E09E11E12E13E15E18E19E21E24E25E26E27E30E31
+        E33E36G01G02G03G05G06G07G08G09G10G11G12G13G14G15G16
+        G17G18G19G20G21G22G23G24G25G26G27G28G30G31G32R01R02
+        R03R04R05R07R08R09R10R11R13R14R15R16R17R18R19R20R21
+        R22R23R24R26  0  0  0  0  0  0  0  0  0  0  0  0  0
++        11 12 11  9  9 10  9  8  9  9  9  8  9  6  6  6  6
++         6  6  5  6  6  6  6  6  5  5  6  5  6  5  6  6  5
++         5  6  4  4  4  4  3  4  4  4  4  4  4  4  4  4  4
++         3  4  3  4  4  3  4  4  4  4  4  4  4  4  4  5  6
++         6  6  5  6  5  6  5  5  6  6  5  5  5  6  6  6  6
++         5  5  5  9  0  0  0  0  0  0  0  0  0  0  0  0  0
%c M  cc GPS ccc cccc cccc cccc cccc ccccc ccccc ccccc ccccc
%c cc cc ccc ccc cccc cccc cccc cccc ccccc ccccc ccccc ccccc
%f  0.0000000  0.000000000  0.00000000000  0.000000000000000
%f  0.0000000  0.000000000  0.00000000000  0.000000000000000
%i    0    0    0    0      0      0      0      0         0
%i    0    0    0    0      0      0      0      0         0
/*                                                          
/*   RSA / INFORMATION & ANALYSIS CENTER (IAC) OF MCC       
/*   ULTRA-RAPID DETERMINATION                              
/* PCV:IGS14_2038 OL/AL:FES2004  NONE     YN ORB:CoN CLK:CoN
*  2019 03 23  9 45  0.00000000
PC02   4339.689122  41937.058177   -676.214499   -394.498416
PC03 -14796.057465  39446.367388    409.915053     -7.375385
PC05  21819.155393  36037.257913   -990.514511   -151.741597
PC06  -8909.850964  23878.210078 -33214.187036    571.843268
PC07 -22720.812118  27953.077137  21665.016942     82.113586
PC08 -14113.403595  37838.082428  12683.766033    133.900627
PC09   5399.189287  31467.252099 -27171.284534    627.810801
PC10  -9626.731674  28839.166637  29197.382200   -598.738979
PC11  -6805.000426  17801.338102  20462.254698    -64.793317
PC12 -18221.465764 -10824.702167  18180.242129    515.052689
PC13  -5418.958152  41925.253824  -1318.244844   -609.534376
PC14 -24021.549771   6768.538304 -12470.205595    738.825320
PC16  -4313.153448  26122.521914 -32780.298507   -416.890496
PE01  -1785.535290 -17465.788436 -23835.501478   -568.113237
PE02   1813.126517  17449.549249  23837.199447     52.691966
PE03  12823.645786  20449.421336 -17138.848641   -147.038707
PE04 -26144.658898 -13879.279458    235.137585   -246.189818
PE05  -8131.521082  15082.343955 -24133.345557     86.800801
PE07  24232.488481   -924.758073  16987.726116   -154.562628
PE08  26297.387483  13600.492331   -137.552474   6384.277742
PE09 -24155.887648   1046.810374 -17059.437520   6491.739851
PE11 -15493.293881   8179.811839  23857.533730   5713.703762
PE12 -14790.970884 -14767.429499  20980.199568   6435.083655
PE13  15401.861430  -8091.127166 -23937.143496    384.577666
PE15  14881.868929  14329.126963 -21180.945189    916.248325
PE18 -13972.385341 -24545.931841  -4610.099476   -601.300232
PE19 -10981.822616 -20334.195623  18503.452030     -7.573532
PE21  17596.078164 -20590.473592 -11946.729531   -525.471219
PE24 -26462.546011  11605.434345  -6491.119004   6170.788249
PE25 -17644.295390  20578.719537  11892.163411   1856.968446
PE26   7229.802410 -25763.349216 -12647.839839   4766.419034
PE27  26397.922487 -11466.194720   6902.222612    504.847460
PE30  19949.102362   4204.710552  21440.988879   5010.356443
PE31 -19695.847402  -4362.583599 -21660.353589    875.946620
PE33  -5662.851248 -28428.199149   6040.411607    847.926163
PE36  -6917.807069  25826.441438  12701.666893    733.114847
PG01 -13714.472315  20243.310647   9791.562271   -186.445940
PG02  15204.208508   1106.165524 -21134.886897   -170.626221
PG03 -20070.674430  12673.844973 -11867.880215    187.100782
PG05  25852.370944  -1351.887741  -6520.256997      1.181476
PG06   9837.602294  14126.397029 -20168.122646    248.571149
PG07  -5912.808094  25394.874737   3729.327313      9.495776
PG08 -16677.335221   2715.115010  20584.208021   -137.204049
PG09   2758.123834  20482.507817 -16721.216558    440.834056
PG10 -10722.185234 -12578.932702  20889.170999     90.769276
PG11 -10785.350848  17372.876810  16539.783548   -640.074896
PG12  21534.556215 -10673.519674 -11309.029333    257.716441
PG13  19025.448592   6501.474502  17261.145366    -70.659612
PG14 -18371.847363 -18681.173614  -4601.635962    -87.297354
PG15  15843.720853  -6004.579463  20272.161984   -322.153351
PG16 -26385.147041     -8.571281  -4865.080127    -27.367692
PG17  14090.888705  22197.945492   4493.755707     27.702204
PG18 -15780.053421  12447.335292  16811.790678     37.429254
PG19  18048.006290  18804.182921  -5129.900257   -339.116566
PG20   -442.615195 -16274.520090  20860.791929    523.350830
PG21    807.960738 -25625.076423   7994.969819   -227.006545
PG22 -24222.148413   9981.296266  -3920.675933   -669.755097
PG23  -8327.954938  13384.874296 -21009.388715   -192.997254
PG24  14698.229404 -17485.006559  13120.630445    -63.756384
PG25  10565.543018 -15441.139895 -18955.166601   -736.677080
PG26 -21776.502778  -5364.482281 -14380.279675    156.664009
PG27 -20671.979000  -8141.238747  14681.027156    -92.152880
PG28   8264.473857  13664.200266  21817.810953    766.691323
PG30   2217.443532  22547.963245  13728.159177    -73.400413
PG31 -10711.216931 -12777.943691 -20568.993831     50.194879
PG32 -17150.945090 -20313.499081   1461.562646   -167.519894
PR01 -23115.550992   -736.915976 -10739.986313     41.246371
PR02  -7180.693419   9113.576863 -22682.064275    360.134078
PR03  11613.842948  12588.169413 -18843.735004     -7.342115
PR04  23804.128923   8416.188131  -3557.084926    299.620533
PR05  22009.839867   -134.889495  12886.576474     24.634116
PR07 -12108.707432 -12625.215121  18616.474485    -16.966466
PR08 -23544.400150  -8809.600800   4403.662474     18.542572
PR09  13453.939975 -19485.810396  -9558.836943     60.572163
PR10   1284.433186 -14601.894738 -20922.164020     45.838431
PR11 -13803.570461   -981.963783 -21410.140339    -60.594599
PR13 -14216.138706  19545.563136   8135.441730    -21.591343
PR14   -883.920967  14682.345916  20843.392675     37.184790
PR15  13149.530497   1605.599894  21811.305913    100.818950
PR16  19543.038355 -12758.508781  10121.226517     10.614885
PR17   6525.363288  24663.542023   -755.345523    214.369995
PR18  11574.680005  15649.242089 -16429.636817     37.769397
PR19  10358.347512  -1538.511505 -23253.798103    -21.464473
PR20   2835.585522 -19792.243591 -15861.357944   -372.639261
PR21  -6786.495660 -24539.817329   1400.717580    -38.161054
PR22 -11766.885041 -13553.210528  18196.408594    -10.840018
PR23  -8848.537402   7156.738165  22825.331879    217.094617
PR24  -1672.368047  20825.599973  14599.375050   -178.518778
PR26   3685.058391 -18115.684062 -17550.361061      2.914255
EOF
